IRIDIUM 106             
1 41917U 17003A   25101.71673737 -.00000002  00000+0 -76414-5 0  9993
2 41917  86.3917 268.7927 0001650 103.9512 256.1867 14.34217351431365
IRIDIUM 102             
1 41920U 17003D   25101.74845084  .00000023  00000+0  10869-5 0  9999
2 41920  86.3915 268.6653 0002133  95.1587 264.9853 14.34217677431445
IRIDIUM 104             
1 41922U 17003F   25101.69136821 -.00000067  00000+0 -31034-4 0  9993
2 41922  86.3917 268.7254 0002157  79.4134 280.7305 14.34216925431427
IRIDIUM 114             
1 41923U 17003G   25101.69770835  .00000091  00000+0  25600-4 0  9990
2 41923  86.3915 268.7072 0001933  87.9664 272.1753 14.34218461431426
IRIDIUM 108             
1 41924U 17003H   25100.81900991  .00000478  00000+0  16372-3 0  9996
2 41924  86.3967 237.3855 0002039 101.3265 258.8160 14.34218952433139
